[{"OBJECT_NAME":"STARLINK-30540","OBJECT_ID":"2023-153M","EPOCH":"2026-03-08T23:57:12.210336","MEAN_MOTION":15.26723101,"ECCENTRICITY":7.347e-5,"INCLINATION":43.0033,"RA_OF_ASC_NODE":70.6829,"ARG_OF_PERICENTER":215.1985,"MEAN_ANOMALY":144.8818,"EPHEMERIS_TYPE":0,"CLASSIFICATION_TYPE":"U","NORAD_CAT_ID":58002,"ELEMENT_SET_NO":999,"REV_AT_EPOCH":13469,"BSTAR":-0.00015087491,"MEAN_MOTION_DOT":-4.302e-5,"MEAN_MOTION_DDOT":0},{"OBJECT_NAME":"BREEZE-KM R\/B","OBJECT_ID":"2016-011B","EPOCH":"2026-03-09T13:46:31.765728","MEAN_MOTION":15.28220455,"ECCENTRICITY":0.0143188,"INCLINATION":98.6722,"RA_OF_ASC_NODE":284.67,"ARG_OF_PERICENTER":63.2473,"MEAN_ANOMALY":298.3333,"EPHEMERIS_TYPE":0,"CLASSIFICATION_TYPE":"U","NORAD_CAT_ID":41336,"ELEMENT_SET_NO":999,"REV_AT_EPOCH":55224,"BSTAR":0.00023628,"MEAN_MOTION_DOT":8.734e-5,"MEAN_MOTION_DDOT":0}]
